{
  "type": "FeatureCollection",
  "features": [
    {
      "type": "Feature",
      "properties": {
        "norad_id": 34434,
        "name": "COSMOS 2251 DEB",
        "group": "cosmos-2251-debris",
        "lat": -51.86871371981636,
        "lon": -153.72146971524361,
        "alt_km": 941.7967016296298,
        "timestamp": "2025-12-15T19:00:45.752996+00:00",
        "meta_object_name": "COSMOS 2251 DEB",
        "meta_object_id": "1993-036SB",
        "meta_epoch": "2025-12-14T21:30:45.844416",
        "meta_mean_motion": 13.89830005,
        "meta_eccentricity": 0.02746112,
        "meta_inclination": 74.0635,
        "meta_ra_of_asc_node": 6.4563,
        "meta_arg_of_pericenter": 143.2624,
        "meta_mean_anomaly": 287.9363,
        "meta_ephemeris_type": 0,
        "meta_classification_type": "U",
        "meta_norad_cat_id": 34434,
        "meta_element_set_no": 999,
        "meta_rev_at_epoch": 83996,
        "meta_bstar": 0.0030425047,
        "meta_mean_motion_dot": 5.048e-05,
        "meta_mean_motion_ddot": 0,
        "tle_line1": "1 34434U 93036SB  25348.89636394  .00005048  00000+0  30425-2 0  9991",
        "tle_line2": "2 34434  74.0635   6.4563 0274611 143.2624 287.9363 13.89830005839962"
      },
      "geometry": {
        "type": "Point",
        "coordinates": [
          -153.72146971524361,
          -51.86871371981636
        ]
      }
    },
    {
      "type": "Feature",
      "properties": {
        "norad_id": 34446,
        "name": "COSMOS 2251 DEB",
        "group": "cosmos-2251-debris",
        "lat": -7.9006420288512045,
        "lon": 49.28259478996567,
        "alt_km": 766.0331120514174,
        "timestamp": "2025-12-15T19:00:45.753006+00:00",
        "meta_object_name": "COSMOS 2251 DEB",
        "meta_object_id": "1993-036SP",
        "meta_epoch": "2025-12-14T21:30:54.884448",
        "meta_mean_motion": 14.49355499,
        "meta_eccentricity": 0.0051049,
        "meta_inclination": 74.0422,
        "meta_ra_of_asc_node": 53.2373,
        "meta_arg_of_pericenter": 190.7726,
        "meta_mean_anomaly": 169.2346,
        "meta_ephemeris_type": 0,
        "meta_classification_type": "U",
        "meta_norad_cat_id": 34446,
        "meta_element_set_no": 999,
        "meta_rev_at_epoch": 88725,
        "meta_bstar": 0.00014190453,
        "meta_mean_motion_dot": 5.23e-06,
        "meta_mean_motion_ddot": 0,
        "tle_line1": "1 34446U 93036SP  25348.89646857  .00000523  00000+0  14190-3 0  9994",
        "tle_line2": "2 34446  74.0422  53.2373 0051049 190.7726 169.2346 14.49355499887250"
      },
      "geometry": {
        "type": "Point",
        "coordinates": [
          49.28259478996567,
          -7.9006420288512045
        ]
      }
    },
    {
      "type": "Feature",
      "properties": {
        "norad_id": 34449,
        "name": "COSMOS 2251 DEB",
        "group": "cosmos-2251-debris",
        "lat": -71.24929252032635,
        "lon": 6.8965854602778585,
        "alt_km": 604.9850315380327,
        "timestamp": "2025-12-15T19:00:45.753016+00:00",
        "meta_object_name": "COSMOS 2251 DEB",
        "meta_object_id": "1993-036SS",
        "meta_epoch": "2025-12-14T16:37:11.993088",
        "meta_mean_motion": 14.95027268,
        "meta_eccentricity": 0.00229618,
        "meta_inclination": 74.0328,
        "meta_ra_of_asc_node": 66.6191,
        "meta_arg_of_pericenter": 107.6187,
        "meta_mean_anomaly": 16.0636,
        "meta_ephemeris_type": 0,
        "meta_classification_type": "U",
        "meta_norad_cat_id": 34449,
        "meta_element_set_no": 999,
        "meta_rev_at_epoch": 88722,
        "meta_bstar": 0.002055933,
        "meta_mean_motion_dot": 0.00022654,
        "meta_mean_motion_ddot": 0,
        "tle_line1": "1 34449U 93036SS  25348.69249992  .00022654  00000+0  20559-2 0  9998",
        "tle_line2": "2 34449  74.0328  66.6191 0022961 107.6187  16.0636 14.95027268887222"
      },
      "geometry": {
        "type": "Point",
        "coordinates": [
          6.8965854602778585,
          -71.24929252032635
        ]
      }
    },
    {
      "type": "Feature",
      "properties": {
        "norad_id": 34451,
        "name": "COSMOS 2251 DEB",
        "group": "cosmos-2251-debris",
        "lat": -70.52335570187344,
        "lon": -44.300515453740466,
        "alt_km": 602.526530474639,
        "timestamp": "2025-12-15T19:00:45.753026+00:00",
        "meta_object_name": "COSMOS 2251 DEB",
        "meta_object_id": "1993-036SU",
        "meta_epoch": "2025-12-14T16:10:40.162944",
        "meta_mean_motion": 14.95722036,
        "meta_eccentricity": 0.00240934,
        "meta_inclination": 74.0459,
        "meta_ra_of_asc_node": 83.9664,
        "meta_arg_of_pericenter": 102.297,
        "meta_mean_anomaly": 258.0914,
        "meta_ephemeris_type": 0,
        "meta_classification_type": "U",
        "meta_norad_cat_id": 34451,
        "meta_element_set_no": 999,
        "meta_rev_at_epoch": 88664,
        "meta_bstar": 0.002183225,
        "meta_mean_motion_dot": 0.0002451,
        "meta_mean_motion_ddot": 0,
        "tle_line1": "1 34451U 93036SU  25348.67407596  .00024510  00000+0  21832-2 0  9993",
        "tle_line2": "2 34451  74.0459  83.9664 0024093 102.2970 258.0914 14.95722036886643"
      },
      "geometry": {
        "type": "Point",
        "coordinates": [
          -44.300515453740466,
          -70.52335570187344
        ]
      }
    },
    {
      "type": "Feature",
      "properties": {
        "norad_id": 34452,
        "name": "COSMOS 2251 DEB",
        "group": "cosmos-2251-debris",
        "lat": 15.322105814200944,
        "lon": -7.99588249022631,
        "alt_km": 529.5696287290502,
        "timestamp": "2025-12-15T19:00:45.753036+00:00",
        "meta_object_name": "COSMOS 2251 DEB",
        "meta_object_id": "1993-036SV",
        "meta_epoch": "2025-12-14T15:48:00.412704",
        "meta_mean_motion": 15.11740211,
        "meta_eccentricity": 0.00659631,
        "meta_inclination": 74.0348,
        "meta_ra_of_asc_node": 178.8489,
        "meta_arg_of_pericenter": 254.7664,
        "meta_mean_anomaly": 221.7742,
        "meta_ephemeris_type": 0,
        "meta_classification_type": "U",
        "meta_norad_cat_id": 34452,
        "meta_element_set_no": 999,
        "meta_rev_at_epoch": 90691,
        "meta_bstar": 0.00061436643,
        "meta_mean_motion_dot": 0.0001101,
        "meta_mean_motion_ddot": 0,
        "tle_line1": "1 34452U 93036SV  25348.65833811  .00011010  00000+0  61437-3 0  9992",
        "tle_line2": "2 34452  74.0348 178.8489 0065963 254.7664 221.7742 15.11740211906917"
      },
      "geometry": {
        "type": "Point",
        "coordinates": [
          -7.99588249022631,
          15.322105814200944
        ]
      }
    },
    {
      "type": "Feature",
      "properties": {
        "norad_id": 34454,
        "name": "COSMOS 2251 DEB",
        "group": "cosmos-2251-debris",
        "lat": 57.64413020163315,
        "lon": 65.19918146899627,
        "alt_km": 777.2551729049692,
        "timestamp": "2025-12-15T19:00:45.753047+00:00",
        "meta_object_name": "COSMOS 2251 DEB",
        "meta_object_id": "1993-036SX",
        "meta_epoch": "2025-12-14T20:46:15.849408",
        "meta_mean_motion": 14.38811942,
        "meta_eccentricity": 0.00356791,
        "meta_inclination": 74.0589,
        "meta_ra_of_asc_node": 273.7224,
        "meta_arg_of_pericenter": 335.8374,
        "meta_mean_anomaly": 24.1105,
        "meta_ephemeris_type": 0,
        "meta_classification_type": "U",
        "meta_norad_cat_id": 34454,
        "meta_element_set_no": 999,
        "meta_rev_at_epoch": 88098,
        "meta_bstar": 0.00026881861,
        "meta_mean_motion_dot": 8.06e-06,
        "meta_mean_motion_ddot": 0,
        "tle_line1": "1 34454U 93036SX  25348.86546122  .00000806  00000+0  26882-3 0  9999",
        "tle_line2": "2 34454  74.0589 273.7224 0035679 335.8374  24.1105 14.38811942880982"
      },
      "geometry": {
        "type": "Point",
        "coordinates": [
          65.19918146899627,
          57.64413020163315
        ]
      }
    },
    {
      "type": "Feature",
      "properties": {
        "norad_id": 34459,
        "name": "COSMOS 2251 DEB",
        "group": "cosmos-2251-debris",
        "lat": 54.6130807793983,
        "lon": -87.53333603448648,
        "alt_km": 908.5756582307558,
        "timestamp": "2025-12-15T19:00:45.753057+00:00",
        "meta_object_name": "COSMOS 2251 DEB",
        "meta_object_id": "1993-036TC",
        "meta_epoch": "2025-12-14T20:27:14.895072",
        "meta_mean_motion": 14.00503353,
        "meta_eccentricity": 0.01920843,
        "meta_inclination": 74.079,
        "meta_ra_of_asc_node": 250.3976,
        "meta_arg_of_pericenter": 319.7042,
        "meta_mean_anomaly": 38.9985,
        "meta_ephemeris_type": 0,
        "meta_classification_type": "U",
        "meta_norad_cat_id": 34459,
        "meta_element_set_no": 999,
        "meta_rev_at_epoch": 85741,
        "meta_bstar": 0.0005091361,
        "meta_mean_motion_dot": 8.62e-06,
        "meta_mean_motion_ddot": 0,
        "tle_line1": "1 34459U 93036TC  25348.85225573  .00000862  00000+0  50914-3 0  9992",
        "tle_line2": "2 34459  74.0790 250.3976 0192084 319.7042  38.9985 14.00503353857417"
      },
      "geometry": {
        "type": "Point",
        "coordinates": [
          -87.53333603448648,
          54.6130807793983
        ]
      }
    }
  ]
}